CCSDS_OMM_VERS = 2.0
CREATION_DATE  = 
ORIGINATOR     = 

OBJECT_NAME    = SL-3 R/B
OBJECT_ID      = 1982-079B
CENTER_NAME    = EARTH
REF_FRAME      = TEME
TIME_SYSTEM    = UTC
MEAN_ELEMENT_THEORY = SGP/SGP4

EPOCH          = 2025-12-02T10:26:21.643872
MEAN_MOTION    = 15.23401050
ECCENTRICITY   = .0026636
INCLINATION    = 81.1457
RA_OF_ASC_NODE = 307.8070
ARG_OF_PERICENTER = 132.1094
MEAN_ANOMALY   = 228.2410

EPHEMERIS_TYPE = 0
CLASSIFICATION_TYPE = U
NORAD_CAT_ID   = 13403
ELEMENT_SET_NO = 999
REV_AT_EPOCH   = 36288
BSTAR          = .27912E-3
MEAN_MOTION_DOT = .6733E-4
MEAN_MOTION_DDOT = 0

CCSDS_OMM_VERS = 2.0
CREATION_DATE  = 
ORIGINATOR     = 

OBJECT_NAME    = SL-14 R/B
OBJECT_ID      = 1982-092B
CENTER_NAME    = EARTH
REF_FRAME      = TEME
TIME_SYSTEM    = UTC
MEAN_ELEMENT_THEORY = SGP/SGP4

EPOCH          = 2025-12-02T06:12:20.690784
MEAN_MOTION    = 14.86538179
ECCENTRICITY   = .0018822
INCLINATION    = 82.5688
RA_OF_ASC_NODE = 232.5130
ARG_OF_PERICENTER = 264.4653
MEAN_ANOMALY   = 217.3571

EPHEMERIS_TYPE = 0
CLASSIFICATION_TYPE = U
NORAD_CAT_ID   = 13553
ELEMENT_SET_NO = 999
REV_AT_EPOCH   = 31445
BSTAR          = .79089E-4
MEAN_MOTION_DOT = .726E-5
MEAN_MOTION_DDOT = 0

CCSDS_OMM_VERS = 2.0
CREATION_DATE  = 
ORIGINATOR     = 

OBJECT_NAME    = SL-3 R/B
OBJECT_ID      = 1983-010B
CENTER_NAME    = EARTH
REF_FRAME      = TEME
TIME_SYSTEM    = UTC
MEAN_ELEMENT_THEORY = SGP/SGP4

EPOCH          = 2025-12-02T11:06:14.364000
MEAN_MOTION    = 15.43035230
ECCENTRICITY   = .0017654
INCLINATION    = 81.1025
RA_OF_ASC_NODE = 121.1588
ARG_OF_PERICENTER = 26.6629
MEAN_ANOMALY   = 333.5518

EPHEMERIS_TYPE = 0
CLASSIFICATION_TYPE = U
NORAD_CAT_ID   = 13819
ELEMENT_SET_NO = 999
REV_AT_EPOCH   = 34293
BSTAR          = .36637E-3
MEAN_MOTION_DOT = .16296E-3
MEAN_MOTION_DDOT = 0

CCSDS_OMM_VERS = 2.0
CREATION_DATE  = 
ORIGINATOR     = 

OBJECT_NAME    = SL-3 R/B
OBJECT_ID      = 1983-075B
CENTER_NAME    = EARTH
REF_FRAME      = TEME
TIME_SYSTEM    = UTC
MEAN_ELEMENT_THEORY = SGP/SGP4

EPOCH          = 2025-12-02T11:51:23.249376
MEAN_MOTION    = 15.35814457
ECCENTRICITY   = .0021627
INCLINATION    = 97.6098
RA_OF_ASC_NODE = 332.6366
ARG_OF_PERICENTER = 213.0433
MEAN_ANOMALY   = 146.9460

EPHEMERIS_TYPE = 0
CLASSIFICATION_TYPE = U
NORAD_CAT_ID   = 14208
ELEMENT_SET_NO = 999
REV_AT_EPOCH   = 31522
BSTAR          = .3605E-3
MEAN_MOTION_DOT = .12577E-3
MEAN_MOTION_DDOT = 0

CCSDS_OMM_VERS = 2.0
CREATION_DATE  = 
ORIGINATOR     = 

OBJECT_NAME    = COSMOS 1536
OBJECT_ID      = 1984-013A
CENTER_NAME    = EARTH
REF_FRAME      = TEME
TIME_SYSTEM    = UTC
MEAN_ELEMENT_THEORY = SGP/SGP4

EPOCH          = 2025-12-02T08:32:22.912800
MEAN_MOTION    = 15.22342653
ECCENTRICITY   = .0013244
INCLINATION    = 82.5466
RA_OF_ASC_NODE = 204.4601
ARG_OF_PERICENTER = 266.4588
MEAN_ANOMALY   = 93.5134

EPHEMERIS_TYPE = 0
CLASSIFICATION_TYPE = U
NORAD_CAT_ID   = 14699
ELEMENT_SET_NO = 999
REV_AT_EPOCH   = 25780
BSTAR          = .27557E-3
MEAN_MOTION_DOT = .64E-4
MEAN_MOTION_DDOT = 0

CCSDS_OMM_VERS = 2.0
CREATION_DATE  = 
ORIGINATOR     = 

OBJECT_NAME    = SL-14 R/B
OBJECT_ID      = 1984-027B
CENTER_NAME    = EARTH
REF_FRAME      = TEME
TIME_SYSTEM    = UTC
MEAN_ELEMENT_THEORY = SGP/SGP4

EPOCH          = 2025-12-02T10:53:58.236864
MEAN_MOTION    = 14.85856489
ECCENTRICITY   = .0016575
INCLINATION    = 82.5409
RA_OF_ASC_NODE = 336.2030
ARG_OF_PERICENTER = 298.1069
MEAN_ANOMALY   = 61.8472

EPHEMERIS_TYPE = 0
CLASSIFICATION_TYPE = U
NORAD_CAT_ID   = 14820
ELEMENT_SET_NO = 999
REV_AT_EPOCH   = 23319
BSTAR          = .84743E-4
MEAN_MOTION_DOT = .763E-5
MEAN_MOTION_DDOT = 0

CCSDS_OMM_VERS = 2.0
CREATION_DATE  = 
ORIGINATOR     = 

OBJECT_NAME    = SL-8 R/B
OBJECT_ID      = 1985-006B
CENTER_NAME    = EARTH
REF_FRAME      = TEME
TIME_SYSTEM    = UTC
MEAN_ELEMENT_THEORY = SGP/SGP4

EPOCH          = 2025-12-02T10:58:06.616992
MEAN_MOTION    = 14.37711204
ECCENTRICITY   = .0018236
INCLINATION    = 74.0464
RA_OF_ASC_NODE = 80.0524
ARG_OF_PERICENTER = 15.0476
MEAN_ANOMALY   = 66.3624

EPHEMERIS_TYPE = 0
CLASSIFICATION_TYPE = U
NORAD_CAT_ID   = 15483
ELEMENT_SET_NO = 999
REV_AT_EPOCH   = 14005
BSTAR          = .13714E-3
MEAN_MOTION_DOT = .387E-5
MEAN_MOTION_DDOT = 0

CCSDS_OMM_VERS = 2.0
CREATION_DATE  = 
ORIGINATOR     = 

OBJECT_NAME    = SL-12 R/B(2)
OBJECT_ID      = 1985-042D
CENTER_NAME    = EARTH
REF_FRAME      = TEME
TIME_SYSTEM    = UTC
MEAN_ELEMENT_THEORY = SGP/SGP4

EPOCH          = 2025-12-02T08:15:16.231104
MEAN_MOTION    = 14.21946513
ECCENTRICITY   = .0037677
INCLINATION    = 71.1080
RA_OF_ASC_NODE = 293.3820
ARG_OF_PERICENTER = 276.6777
MEAN_ANOMALY   = 192.6825

EPHEMERIS_TYPE = 0
CLASSIFICATION_TYPE = U
NORAD_CAT_ID   = 15772
ELEMENT_SET_NO = 999
REV_AT_EPOCH   = 10055
BSTAR          = .71309E-4
MEAN_MOTION_DOT = .111E-5
MEAN_MOTION_DDOT = 0

CCSDS_OMM_VERS = 2.0
CREATION_DATE  = 
ORIGINATOR     = 

OBJECT_NAME    = SL-14 R/B
OBJECT_ID      = 1985-069B
CENTER_NAME    = EARTH
REF_FRAME      = TEME
TIME_SYSTEM    = UTC
MEAN_ELEMENT_THEORY = SGP/SGP4

EPOCH          = 2025-12-02T11:14:37.496256
MEAN_MOTION    = 14.86303766
ECCENTRICITY   = .0019487
INCLINATION    = 82.5256
RA_OF_ASC_NODE = 116.3586
ARG_OF_PERICENTER = 150.7526
MEAN_ANOMALY   = 209.4786

EPHEMERIS_TYPE = 0
CLASSIFICATION_TYPE = U
NORAD_CAT_ID   = 15945
ELEMENT_SET_NO = 999
REV_AT_EPOCH   = 15839
BSTAR          = .94427E-4
MEAN_MOTION_DOT = .858E-5
MEAN_MOTION_DDOT = 0

CCSDS_OMM_VERS = 2.0
CREATION_DATE  = 
ORIGINATOR     = 

OBJECT_NAME    = SL-16 R/B
OBJECT_ID      = 1985-097B
CENTER_NAME    = EARTH
REF_FRAME      = TEME
TIME_SYSTEM    = UTC
MEAN_ELEMENT_THEORY = SGP/SGP4

EPOCH          = 2025-12-02T11:30:20.363040
MEAN_MOTION    = 14.16581951
ECCENTRICITY   = .0006038
INCLINATION    = 71.0033
RA_OF_ASC_NODE = 345.2051
ARG_OF_PERICENTER = 27.3854
MEAN_ANOMALY   = 82.0393

EPHEMERIS_TYPE = 0
CLASSIFICATION_TYPE = U
NORAD_CAT_ID   = 16182
ELEMENT_SET_NO = 999
REV_AT_EPOCH   = 7346
BSTAR          = -.62006E-4
MEAN_MOTION_DOT = -.172E-5
MEAN_MOTION_DDOT = 0

CCSDS_OMM_VERS = 2.0
CREATION_DATE  = 
ORIGINATOR     = 

OBJECT_NAME    = SL-14 R/B
OBJECT_ID      = 1986-006B
CENTER_NAME    = EARTH
REF_FRAME      = TEME
TIME_SYSTEM    = UTC
MEAN_ELEMENT_THEORY = SGP/SGP4

EPOCH          = 2025-12-02T11:15:44.966880
MEAN_MOTION    = 14.86649529
ECCENTRICITY   = .007546
INCLINATION    = 82.5268
RA_OF_ASC_NODE = 351.2159
ARG_OF_PERICENTER = 234.3009
MEAN_ANOMALY   = 125.1171

EPHEMERIS_TYPE = 0
CLASSIFICATION_TYPE = U
NORAD_CAT_ID   = 16496
ELEMENT_SET_NO = 999
REV_AT_EPOCH   = 13476
BSTAR          = .10413E-3
MEAN_MOTION_DOT = .999E-5
MEAN_MOTION_DDOT = 0

CCSDS_OMM_VERS = 2.0
CREATION_DATE  = 
ORIGINATOR     = 

OBJECT_NAME    = COSMOS 1743
OBJECT_ID      = 1986-034A
CENTER_NAME    = EARTH
REF_FRAME      = TEME
TIME_SYSTEM    = UTC
MEAN_ELEMENT_THEORY = SGP/SGP4

EPOCH          = 2025-12-02T06:31:54.635232
MEAN_MOTION    = 15.51335191
ECCENTRICITY   = .0004953
INCLINATION    = 82.5350
RA_OF_ASC_NODE = 175.4576
ARG_OF_PERICENTER = 299.8548
MEAN_ANOMALY   = 60.2212

EPHEMERIS_TYPE = 0
CLASSIFICATION_TYPE = U
NORAD_CAT_ID   = 16719
ELEMENT_SET_NO = 999
REV_AT_EPOCH   = 16511
BSTAR          = .46605E-3
MEAN_MOTION_DOT = .27471E-3
MEAN_MOTION_DDOT = 0

