SL-3 R/B                
1 13403U 82079B   25336.43497273  .00006733  00000+0  27912-3 0  9997
2 13403  81.1457 307.8070 0026636 132.1094 228.2410 15.23401050362884
SL-14 R/B               
1 13553U 82092B   25336.25857281  .00000726  00000+0  79089-4 0  9996
2 13553  82.5688 232.5130 0018822 264.4653 217.3571 14.86538179314458
SL-3 R/B                
1 13819U 83010B   25336.46266625  .00016296  00000+0  36637-3 0  9991
2 13819  81.1025 121.1588 0017654  26.6629 333.5518 15.43035230342936
SL-3 R/B                
1 14208U 83075B   25336.49401909  .00012577  00000+0  36050-3 0  9991
2 14208  97.6098 332.6366 0021627 213.0433 146.9460 15.35814457315225
COSMOS 1536             
1 14699U 84013A   25336.35582075  .00006400  00000+0  27557-3 0  9997
2 14699  82.5466 204.4601 0013244 266.4588  93.5134 15.22342653257802
SL-14 R/B               
1 14820U 84027B   25336.45414626  .00000763  00000+0  84743-4 0  9992
2 14820  82.5409 336.2030 0016575 298.1069  61.8472 14.85856489233195
SL-8 R/B                
1 15483U 85006B   25336.45702103  .00000387  00000+0  13714-3 0  9997
2 15483  74.0464  80.0524 0018236  15.0476  66.3624 14.37711204140057
SL-12 R/B(2)            
1 15772U 85042D   25336.34393786  .00000111  00000+0  71309-4 0  9999
2 15772  71.1080 293.3820 0037677 276.6777 192.6825 14.21946513100550
SL-14 R/B               
1 15945U 85069B   25336.46848954  .00000858  00000+0  94427-4 0  9999
2 15945  82.5256 116.3586 0019487 150.7526 209.4786 14.86303766158395
SL-16 R/B               
1 16182U 85097B   25336.47940235 -.00000172  00000+0 -62006-4 0  9999
2 16182  71.0033 345.2051 0006038  27.3854  82.0393 14.16581951 73466
SL-14 R/B               
1 16496U 86006B   25336.46927045  .00000999  00000+0  10413-3 0  9990
2 16496  82.5268 351.2159 0075460 234.3009 125.1171 14.86649529134761
COSMOS 1743             
1 16719U 86034A   25336.27216013  .00027471  00000+0  46605-3 0  9990
2 16719  82.5350 175.4576 0004953 299.8548  60.2212 15.51335191165111
